[{"OBJECT_NAME":"STARLINK-34033","OBJECT_ID":"2025-102Z","EPOCH":"2026-03-09T13:28:47.296128","MEAN_MOTION":14.9833278,"ECCENTRICITY":0.0003568,"INCLINATION":70.001,"RA_OF_ASC_NODE":114.7526,"ARG_OF_PERICENTER":269.7941,"MEAN_ANOMALY":90.2809,"EPHEMERIS_TYPE":0,"CLASSIFICATION_TYPE":"U","NORAD_CAT_ID":64045,"ELEMENT_SET_NO":999,"REV_AT_EPOCH":4586,"BSTAR":0.00028142,"MEAN_MOTION_DOT":3.267e-5,"MEAN_MOTION_DDOT":0},{"OBJECT_NAME":"CZ-6A DEB","OBJECT_ID":"2024-140GW","EPOCH":"2026-03-09T13:40:41.444832","MEAN_MOTION":14.63521789,"ECCENTRICITY":0.016262,"INCLINATION":89.029,"RA_OF_ASC_NODE":283.5875,"ARG_OF_PERICENTER":212.7771,"MEAN_ANOMALY":146.3276,"EPHEMERIS_TYPE":0,"CLASSIFICATION_TYPE":"U","NORAD_CAT_ID":60819,"ELEMENT_SET_NO":999,"REV_AT_EPOCH":8379,"BSTAR":0.00016069,"MEAN_MOTION_DOT":1.03e-5,"MEAN_MOTION_DDOT":0}]
